[Satellite]
VERSION=1.1
NAME=YAMAL 401
NICKNAME=YAMAL 401
TLE1=1 40345U 14082A   15054.71639837 -.00000254  00000-0  00000+0 0  9991
TLE2=2 40345   0.0338 205.3201 0000669 133.9068 161.8566  1.00271783   985
